OBJECT_NAME,OBJECT_ID,EPOCH,MEAN_MOTION,ECCENTRICITY,INCLINATION,RA_OF_ASC_NODE,ARG_OF_PERICENTER,MEAN_ANOMALY,EPHEMERIS_TYPE,CLASSIFICATION_TYPE,NORAD_CAT_ID,ELEMENT_SET_NO,REV_AT_EPOCH,BSTAR,MEAN_MOTION_DOT,MEAN_MOTION_DDOT
ONEWEB-0398,2021-132K,2026-06-05T09:14:35.035008,13.11418834,.0001774,87.8903,23.4065,94.0979,266.0352,0,U,50478,999,21406,.16293E-2,.59E-5,0
ONEWEB-0399,2021-132L,2026-06-05T08:55:03.063936,13.11418902,.0002292,87.8906,23.4200,79.2274,280.9112,0,U,50479,999,21405,.28419E-3,.113E-5,0
ONEWEB-0400,2021-132M,2026-06-05T11:24:43.962048,13.18684526,.0001788,87.9166,337.7749,97.6141,262.5194,0,U,50480,999,22006,-.29666E-3,-.104E-5,0
ONEWEB-0401,2021-132N,2026-06-05T12:30:16.962624,13.18687014,.0001758,87.9168,337.7631,82.4036,277.7296,0,U,50481,999,22007,-.26436E-3,-.91E-6,0
ONEWEB-0402,2021-132P,2026-06-05T11:36:53.216064,13.18688217,.0001725,87.9166,337.7601,74.7309,285.4014,0,U,50482,999,22009,-.16656E-3,-.53E-6,0
ONEWEB-0403,2021-132Q,2026-06-05T12:13:17.038272,13.18687118,.000202,87.9165,337.7787,91.9434,268.1929,0,U,50483,999,22005,-.26648E-3,-.92E-6,0
ONEWEB-0404,2021-132R,2026-06-05T08:28:11.144928,13.11416893,.0002111,87.8898,23.4227,86.4533,273.6836,0,U,50484,999,21414,-.14539E-2,-.503E-5,0
ONEWEB-0405,2021-132S,2026-06-05T12:32:44.151072,13.18686215,.0001758,87.9170,337.7606,105.4493,254.6834,0,U,50485,999,22045,-.19965E-4,.5E-7,0
ONEWEB-0406,2021-132T,2026-06-05T12:20:34.399392,13.18684686,.0002411,87.9159,337.7794,91.1095,269.0313,0,U,50486,999,22008,.48131E-4,.32E-6,0
ONEWEB-0407,2021-132U,2026-06-05T12:10:52.186944,13.18686513,.0001583,87.9167,337.7723,88.8095,271.3218,0,U,50487,999,22002,-.10423E-3,-.28E-6,0
ONEWEB-0409,2021-132V,2026-06-05T08:25:44.351328,13.11417926,.0002027,87.8908,23.4090,88.4631,271.6729,0,U,50488,999,21403,-.12499E-2,-.43E-5,0
ONEWEB-0412,2021-132W,2026-06-05T11:53:51.417600,13.18687498,.0001823,87.9167,337.7837,81.7649,278.3690,0,U,50489,999,22011,-.18773E-3,-.61E-6,0
ONEWEB-0413,2021-132X,2026-06-05T12:01:08.244768,13.18680216,.0001567,87.9156,337.7821,82.2750,277.8560,0,U,50490,999,22005,-.1528E-3,-.47E-6,0
ONEWEB-0414,2021-132Y,2026-06-05T11:39:17.961120,13.18684778,.0001919,87.9167,337.7659,85.9780,274.1571,0,U,50491,999,22008,.82549E-4,.45E-6,0
ONEWEB-0417,2021-132Z,2026-06-05T11:51:26.258688,13.18684979,.0002039,87.9160,337.7847,90.7909,269.3457,0,U,50492,999,22006,.89777E-4,.48E-6,0
ONEWEB-0418,2021-132AA,2026-06-05T12:05:49.330752,13.18685855,.0002108,87.9167,337.7811,92.1023,268.0351,0,U,50493,999,22012,-.18311E-3,-.59E-6,0
ONEWEB-0419,2021-132AB,2026-06-05T12:32:20.409216,13.18665592,.0001986,87.9166,337.7771,97.4071,262.7286,0,U,50494,999,22004,.96512E-4,.51E-6,0
ONEWEB-0420,2021-132AC,2026-06-05T11:41:43.596960,13.18684807,.0001619,87.9157,337.7882,91.9145,268.2172,0,U,50495,999,22003,-.32433E-4,0,0
ONEWEB-0421,2021-132AD,2026-06-05T11:32:00.453120,13.18691504,.0002098,87.9158,337.7864,82.2208,277.9162,0,U,50496,999,22007,-.24592E-2,-.957E-5,0
ONEWEB-0424,2021-132AE,2026-06-05T12:25:25.823136,13.18687487,.0001937,87.9166,337.7769,100.1723,259.9628,0,U,50497,999,22010,-.18906E-3,-.62E-6,0
ONEWEB-0426,2021-132AF,2026-06-05T11:25:57.975744,13.18687980,.0002444,87.9167,337.7761,83.2460,276.8950,0,U,50498,999,22004,-.19093E-3,-.62E-6,0
ONEWEB-0427,2021-132AG,2026-06-05T12:23:00.405024,13.18652212,.0002328,87.9166,337.7568,97.1415,262.9982,0,U,50499,999,22007,.17237E-1,.681E-4,0
ONEWEB-0429,2021-132AH,2026-06-05T12:03:34.939872,13.18685056,.0001691,87.9159,337.7852,90.4903,269.6423,0,U,50500,999,22004,-.18328E-3,-.59E-6,0
ONEWEB-0430,2021-132AJ,2026-06-05T11:46:35.140800,13.18685409,.0001653,87.9158,337.7856,98.4127,261.7192,0,U,50501,999,22008,-.1699E-3,-.54E-6,0
ONEWEB-0432,2021-132AK,2026-06-05T10:44:36.746592,13.18682886,.0001822,87.9165,337.7664,111.3958,248.7369,0,U,50502,999,22003,-.10925E-4,.9E-7,0
ONEWEB-0440,2021-132AL,2026-06-05T12:15:42.844320,13.18684821,.0001744,87.9166,337.7766,79.9660,280.1669,0,U,50503,999,22003,.10552E-3,.55E-6,0
ONEWEB-0450,2021-132AM,2026-06-05T12:06:13.006080,13.18687294,.0001631,87.9156,337.7847,91.9867,268.1452,0,U,50504,999,22006,-.24658E-3,-.84E-6,0
ONEWEB-0410,2022-012A,2026-06-05T07:05:13.318656,13.17647764,.0003163,87.9153,8.2217,86.0938,274.0555,0,U,51622,999,21213,.35059E-4,.27E-6,0
ONEWEB-0411,2022-012B,2026-06-05T09:45:34.115040,13.10376395,.0001359,87.8859,38.6111,99.1848,260.9434,0,U,51623,999,20774,-.8698E-3,-.291E-5,0
ONEWEB-0415,2022-012C,2026-06-04T17:11:12.073344,13.10378067,.00016927,87.8851,38.7497,94.6857,265.4464,0,U,51624,999,20765,-.55422137E-3,-.181E-5,0
